start=new Date('2021-11-22T00:00:00.000Z').valueOf();
sats=[{"RCS_SIZE":null,"REF_FRAME":"TEME","TLE_LINE1":"1 49445U 21104AP  21325.91667824 -.00876139  23274-3 -29885-2 0  9991","RA_OF_ASC_NODE":"91.9787","REV_AT_EPOCH":"259","MEAN_MOTION_DDOT":"0.0002327400000","OBJECT_NAME":"STARLINK-3122","LAUNCH_DATE":"2021-11-13","COUNTRY_CODE":"US","BSTAR":"-0.00298850000000","PERIOD":"90.661","APOAPSIS":"326.287","CENTER_NAME":"EARTH","MEAN_MOTION_DOT":"-0.00876139","OBJECT_TYPE":"PAYLOAD","INCLINATION":"53.2171","EPOCH":"2021-11-21T22:00:00.999936","TLE_LINE2":"2 49445  53.2171  91.9787 0028932  65.2105   2.7964 15.88337564  2595","MEAN_MOTION":"15.88337564","MEAN_ANOMALY":"2.7964","TIME_SYSTEM":"UTC","FILE":"3220922","ELEMENT_SET_NO":"999","NORAD_CAT_ID":"49445","GP_ID":"190211407","SEMIMAJOR_AXIS":"6685.080","DECAY_DATE":null,"ECCENTRICITY":"0.00289320","MEAN_ELEMENT_THEORY":"SGP4","EPHEMERIS_TYPE":"0","PERIAPSIS":"287.604","CLASSIFICATION_TYPE":"U","SITE":"AFETR","ARG_OF_PERICENTER":"65.2105","OBJECT_ID":"2021-104AP"},{"OBJECT_ID":"2021-104AQ","ARG_OF_PERICENTER":"65.1836","SITE":"AFETR","CLASSIFICATION_TYPE":"U","PERIAPSIS":"287.837","EPHEMERIS_TYPE":"0","MEAN_ELEMENT_THEORY":"SGP4","ECCENTRICITY":"0.00289160","DECAY_DATE":null,"SEMIMAJOR_AXIS":"6685.303","GP_ID":"190211411","NORAD_CAT_ID":"49446","ELEMENT_SET_NO":"999","FILE":"3220922","TIME_SYSTEM":"UTC","MEAN_ANOMALY":"0.6021","TLE_LINE2":"2 49446  53.2171  91.9827 0028916  65.1836   0.6021 15.88258182  2581","MEAN_MOTION":"15.88258182","EPOCH":"2021-11-21T22:00:00.999936","OBJECT_TYPE":"PAYLOAD","INCLINATION":"53.2171","MEAN_MOTION_DOT":"-0.00876409","APOAPSIS":"326.499","CENTER_NAME":"EARTH","PERIOD":"90.665","BSTAR":"-0.00300160000000","COUNTRY_CODE":"US","LAUNCH_DATE":"2021-11-13","MEAN_MOTION_DDOT":"0.0002327000000","OBJECT_NAME":"STARLINK-3099","REV_AT_EPOCH":"258","RA_OF_ASC_NODE":"91.9827","TLE_LINE1":"1 49446U 21104AQ  21325.91667824 -.00876409  23270-3 -30016-2 0  9996","REF_FRAME":"TEME","RCS_SIZE":null},{"EPOCH":"2021-11-21T22:00:00.999936","MEAN_ANOMALY":"3.5384","TIME_SYSTEM":"UTC","TLE_LINE2":"2 49447  53.2171  91.9761 0029211  65.7053   3.5384 15.88387894  2582","MEAN_MOTION":"15.88387894","PERIOD":"90.658","OBJECT_TYPE":"PAYLOAD","INCLINATION":"53.2171","APOAPSIS":"326.332","CENTER_NAME":"EARTH","MEAN_MOTION_DOT":"-0.00875714","LAUNCH_DATE":"2021-11-13","COUNTRY_CODE":"US","BSTAR":"-0.00297730000000","TLE_LINE1":"1 49447U 21104AR  21325.91667824 -.00875714  23265-3 -29773-2 0  9997","RCS_SIZE":null,"REF_FRAME":"TEME","REV_AT_EPOCH":"258","OBJECT_NAME":"STARLINK-3115","MEAN_MOTION_DDOT":"0.0002326500000","RA_OF_ASC_NODE":"91.9761","SITE":"AFETR","OBJECT_ID":"2021-104AR","ARG_OF_PERICENTER":"65.7053","EPHEMERIS_TYPE":"0","PERIAPSIS":"287.277","CLASSIFICATION_TYPE":"U","ECCENTRICITY":"0.00292110","MEAN_ELEMENT_THEORY":"SGP4","SEMIMAJOR_AXIS":"6684.939","DECAY_DATE":null,"ELEMENT_SET_NO":"999","FILE":"3220922","GP_ID":"190211487","NORAD_CAT_ID":"49447"},{"GP_ID":"190211413","NORAD_CAT_ID":"49448","ELEMENT_SET_NO":"999","FILE":"3220922","ECCENTRICITY":"0.00285450","MEAN_ELEMENT_THEORY":"SGP4","SEMIMAJOR_AXIS":"6685.119","DECAY_DATE":null,"CLASSIFICATION_TYPE":"U","EPHEMERIS_TYPE":"0","PERIAPSIS":"287.901","OBJECT_ID":"2021-104AS","ARG_OF_PERICENTER":"65.0774","SITE":"AFETR","REV_AT_EPOCH":"258","OBJECT_NAME":"STARLINK-3097","MEAN_MOTION_DDOT":"0.0002328600000","RA_OF_ASC_NODE":"91.9793","TLE_LINE1":"1 49448U 21104AS  21325.91667824 -.00876459  23286-3 -29946-2 0  9990","RCS_SIZE":null,"REF_FRAME":"TEME","COUNTRY_CODE":"US","BSTAR":"-0.00299460000000","LAUNCH_DATE":"2021-11-13","OBJECT_TYPE":"PAYLOAD","INCLINATION":"53.2171","CENTER_NAME":"EARTH","APOAPSIS":"326.067","MEAN_MOTION_DOT":"-0.00876459","PERIOD":"90.662","MEAN_ANOMALY":"2.4239","TIME_SYSTEM":"UTC","MEAN_MOTION":"15.88323859","TLE_LINE2":"2 49448  53.2171  91.9793 0028545  65.0774   2.4239 15.88323859  2588","EPOCH":"2021-11-21T22:00:00.999936"},{"PERIAPSIS":"286.954","EPHEMERIS_TYPE":"0","CLASSIFICATION_TYPE":"U","SITE":"AFETR","OBJECT_ID":"2021-104AT","ARG_OF_PERICENTER":"65.5049","ELEMENT_SET_NO":"999","FILE":"3220922","GP_ID":"190211479","NORAD_CAT_ID":"49449","MEAN_ELEMENT_THEORY":"SGP4","ECCENTRICITY":"0.00296200","DECAY_DATE":null,"SEMIMAJOR_AXIS":"6684.890","PERIOD":"90.657","OBJECT_TYPE":"PAYLOAD","INCLINATION":"53.2171","MEAN_MOTION_DOT":"-0.00875422","APOAPSIS":"326.556","CENTER_NAME":"EARTH","EPOCH":"2021-11-21T22:00:00.999936","TIME_SYSTEM":"UTC","MEAN_ANOMALY":"4.1242","MEAN_MOTION":"15.88405467","TLE_LINE2":"2 49449  53.2171  91.9754 0029620  65.5049   4.1242 15.88405467  2591","TLE_LINE1":"1 49449U 21104AT  21325.91667824 -.00875422  23254-3 -29705-2 0  9998","REF_FRAME":"TEME","RCS_SIZE":null,"OBJECT_NAME":"STARLINK-3137","MEAN_MOTION_DDOT":"0.0002325400000","REV_AT_EPOCH":"259","RA_OF_ASC_NODE":"91.9754","LAUNCH_DATE":"2021-11-13","BSTAR":"-0.00297050000000","COUNTRY_CODE":"US"},{"LAUNCH_DATE":"2021-11-13","COUNTRY_CODE":"US","BSTAR":"-0.00298240000000","TLE_LINE1":"1 49450U 21104AU  21325.91667824 -.00876055  23277-3 -29824-2 0  9990","RCS_SIZE":null,"REF_FRAME":"TEME","REV_AT_EPOCH":"258","OBJECT_NAME":"STARLINK-3127","MEAN_MOTION_DDOT":"0.0002327700000","RA_OF_ASC_NODE":"91.9767","EPOCH":"2021-11-21T22:00:00.999936","MEAN_ANOMALY":"3.4650","TIME_SYSTEM":"UTC","TLE_LINE2":"2 49450  53.2171  91.9767 0028995  65.3197   3.4650 15.88372779  2586","MEAN_MOTION":"15.88372779","PERIOD":"90.659","INCLINATION":"53.2171","OBJECT_TYPE":"PAYLOAD","CENTER_NAME":"EARTH","APOAPSIS":"326.230","MEAN_MOTION_DOT":"-0.00876055","ECCENTRICITY":"0.00289950","MEAN_ELEMENT_THEORY":"SGP4","SEMIMAJOR_AXIS":"6684.982","DECAY_DATE":null,"ELEMENT_SET_NO":"999","FILE":"3220922","GP_ID":"190211403","NORAD_CAT_ID":"49450","SITE":"AFETR","OBJECT_ID":"2021-104AU","ARG_OF_PERICENTER":"65.3197","EPHEMERIS_TYPE":"0","PERIAPSIS":"287.464","CLASSIFICATION_TYPE":"U"},{"EPOCH":"2021-11-21T22:00:00.999936","MEAN_MOTION":"15.88419843","TLE_LINE2":"2 49451  53.2171  91.9745 0029139  65.2304   4.8887 15.88419843  2595","TIME_SYSTEM":"UTC","MEAN_ANOMALY":"4.8887","PERIOD":"90.656","MEAN_MOTION_DOT":"-0.00875590","CENTER_NAME":"EARTH","APOAPSIS":"326.194","OBJECT_TYPE":"PAYLOAD","INCLINATION":"53.2171","LAUNCH_DATE":"2021-11-13","BSTAR":"-0.00297260000000","COUNTRY_CODE":"US","REF_FRAME":"TEME","RCS_SIZE":null,"TLE_LINE1":"1 49451U 21104AV  21325.91667824 -.00875590  23265-3 -29726-2 0  9992","RA_OF_ASC_NODE":"91.9745","OBJECT_NAME":"STARLINK-3125","MEAN_MOTION_DDOT":"0.0002326500000","REV_AT_EPOCH":"259","SITE":"AFETR","ARG_OF_PERICENTER":"65.2304","OBJECT_ID":"2021-104AV","PERIAPSIS":"287.236","EPHEMERIS_TYPE":"0","CLASSIFICATION_TYPE":"U","DECAY_DATE":null,"SEMIMAJOR_AXIS":"6684.850","MEAN_ELEMENT_THEORY":"SGP4","ECCENTRICITY":"0.00291390","FILE":"3220922","ELEMENT_SET_NO":"999","NORAD_CAT_ID":"49451","GP_ID":"190211481"},{"NORAD_CAT_ID":"49452","GP_ID":"190206778","FILE":"3220710","ELEMENT_SET_NO":"999","SEMIMAJOR_AXIS":"6684.291","DECAY_DATE":null,"ECCENTRICITY":"0.00299170","MEAN_ELEMENT_THEORY":"SGP4","CLASSIFICATION_TYPE":"U","EPHEMERIS_TYPE":"0","PERIAPSIS":"286.158","ARG_OF_PERICENTER":"65.5935","OBJECT_ID":"2021-104AW","SITE":"AFETR","RA_OF_ASC_NODE":"92.3948","REV_AT_EPOCH":"258","OBJECT_NAME":"STARLINK-3150","MEAN_MOTION_DDOT":"0.0002514600000","RCS_SIZE":null,"REF_FRAME":"TEME","TLE_LINE1":"1 49452U 21104AW  21325.83334491 -.00913206  25146-3 -30640-2 0  9999","COUNTRY_CODE":"US","BSTAR":"-0.00306400000000","LAUNCH_DATE":"2021-11-13","CENTER_NAME":"EARTH","APOAPSIS":"326.153","MEAN_MOTION_DOT":"-0.00913206","INCLINATION":"53.2172","OBJECT_TYPE":"PAYLOAD","PERIOD":"90.645","MEAN_MOTION":"15.88619057","TLE_LINE2":"2 49452  53.2172  92.3948 0029917  65.5935 248.4727 15.88619057  2581","MEAN_ANOMALY":"248.4727","TIME_SYSTEM":"UTC","EPOCH":"2021-11-21T20:00:01.000224"},{"ARG_OF_PERICENTER":"65.7820","OBJECT_ID":"2021-104AX","SITE":"AFETR","CLASSIFICATION_TYPE":"U","EPHEMERIS_TYPE":"0","PERIAPSIS":"285.949","SEMIMAJOR_AXIS":"6684.246","DECAY_DATE":null,"ECCENTRICITY":"0.00301640","MEAN_ELEMENT_THEORY":"SGP4","NORAD_CAT_ID":"49453","GP_ID":"190206542","FILE":"3220726","ELEMENT_SET_NO":"999","TLE_LINE2":"2 49453  53.2172  92.3945 0030164  65.7820 248.7074 15.88635023  2578","MEAN_MOTION":"15.88635023","MEAN_ANOMALY":"248.7074","TIME_SYSTEM":"UTC","EPOCH":"2021-11-21T20:00:01.000224","CENTER_NAME":"EARTH","APOAPSIS":"326.273","MEAN_MOTION_DOT":"-0.00912733","OBJECT_TYPE":"PAYLOAD","INCLINATION":"53.2172","PERIOD":"90.644","COUNTRY_CODE":"US","BSTAR":"-0.00305790000000","LAUNCH_DATE":"2021-11-13","RA_OF_ASC_NODE":"92.3945","REV_AT_EPOCH":"257","OBJECT_NAME":"STARLINK-3129","MEAN_MOTION_DDOT":"0.0002512700000","RCS_SIZE":null,"REF_FRAME":"TEME","TLE_LINE1":"1 49453U 21104AX  21325.83334491 -.00912733  25127-3 -30579-2 0  9994"},{"MEAN_ELEMENT_THEORY":"SGP4","ECCENTRICITY":"0.00295660","DECAY_DATE":null,"SEMIMAJOR_AXIS":"6684.336","GP_ID":"190206879","NORAD_CAT_ID":"49454","ELEMENT_SET_NO":"999","FILE":"3220717","OBJECT_ID":"2021-104AY","ARG_OF_PERICENTER":"65.5583","SITE":"AFETR","CLASSIFICATION_TYPE":"U","PERIAPSIS":"286.438","EPHEMERIS_TYPE":"0","BSTAR":"-0.00307000000000","COUNTRY_CODE":"US","LAUNCH_DATE":"2021-11-13","MEAN_MOTION_DDOT":"0.0002515200000","OBJECT_NAME":"STARLINK-3160","REV_AT_EPOCH":"258","RA_OF_ASC_NODE":"92.3958","TLE_LINE1":"1 49454U 21104AY  21325.83334491 -.00913395  25152-3 -30700-2 0  9994","REF_FRAME":"TEME","RCS_SIZE":null,"TIME_SYSTEM":"UTC","MEAN_ANOMALY":"248.0859","MEAN_MOTION":"15.88602851","TLE_LINE2":"2 49454  53.2172  92.3958 0029566  65.5583 248.0859 15.88602851  2589","EPOCH":"2021-11-21T20:00:01.000224","INCLINATION":"53.2172","OBJECT_TYPE":"PAYLOAD","MEAN_MOTION_DOT":"-0.00913395","APOAPSIS":"325.964","CENTER_NAME":"EARTH","PERIOD":"90.646"}];
